{"type": "Feature", "properties": {"outer_verts": 5, "inner_verts": 33, "total": 38}, "geometry": {"type": "Polygon", "coordinates": [[[-179.9, -85], [179.9, -85], [179.9, 85], [-179.9, 85], [-179.9, -85]], [[121.47906185300336, 31.232], [121.47863794068411, 31.228319711855605], [121.47738249443907, 31.224780855120674], [121.47534376036337, 31.22151942607491], [121.47260008586422, 31.218660759607513], [121.46925690881392, 31.216314712667668], [121.46544270563166, 31.214571442523592], [121.46130405400669, 31.21349794206929], [121.457, 31.213135465325188], [121.4526959459933, 31.21349794206929], [121.44855729436833, 31.214571442523592], [121.44474309118607, 31.216314712667668], [121.44139991413577, 31.218660759607513], [121.43865623963661, 31.22151942607491], [121.43661750556092, 31.224780855120674], [121.43536205931588, 31.228319711855605], [121.43493814699663, 31.232], [121.43536205931588, 31.235680288144394], [121.43661750556092, 31.239219144879325], [121.43865623963661, 31.24248057392509], [121.44139991413577, 31.245339240392486], [121.44474309118607, 31.24768528733233], [121.44855729436833, 31.249428557476406], [121.4526959459933, 31.25050205793071], [121.457, 31.25086453467481], [121.46130405400669, 31.25050205793071], [121.46544270563166, 31.249428557476406], [121.46925690881392, 31.24768528733233], [121.47260008586422, 31.245339240392486], [121.47534376036337, 31.24248057392509], [121.47738249443907, 31.239219144879325], [121.47863794068411, 31.235680288144394], [121.47906185300336, 31.232]]]}}