{"type":"Feature","properties":{"cell_count":1280,"hole_count":40},"geometry":{"type":"Polygon","coordinates":[[[-179.9,-85],[179.9,-85],[179.9,85],[-179.9,85],[-179.9,-85]],[[121.45568365447579,31.227542220625224],[121.45568365447579,31.227766798418973],[121.45830994477173,31.227766798418973],[121.45830994477173,31.227542220625224],[121.45568365447579,31.227542220625224]],[[121.45465913437387,31.227766798418973],[121.45465913437387,31.227991376212717],[121.45912383848687,31.227991376212717],[121.45912383848687,31.227766798418973],[121.45465913437387,31.227766798418973]],[[121.45415987182417,31.227991376212717],[121.45415987182417,31.228215954006465],[121.45967510765854,31.228215954006465],[121.45967510765854,31.227991376212717],[121.45415987182417,31.227991376212717]],[[121.45392323966945,31.228215954006465],[121.45392323966945,31.228440531800214],[121.46022638131635,31.228440531800214],[121.46022638131635,31.228215954006465],[121.45392323966945,31.228215954006465]],[[121.45342397672991,31.228440531800214],[121.45342397672991,31.228665109593962],[121.4605150279343,31.228665109593962],[121.4605150279343,31.228440531800214],[121.45342397672991,31.228440531800214]],[[121.45318734543355,31.228665109593962],[121.45318734543355,31.22888968738771],[121.46080367779022,31.22888968738771],[121.46080367779022,31.228665109593962],[121.45318734543355,31.228665109593962]],[[121.45295071487843,31.22888968738771],[121.45295071487843,31.229114265181458],[121.46109233088417,31.229114265181458],[121.46109233088417,31.22888968738771],[121.45295071487843,31.22888968738771]],[[121.45297671846302,31.229114265181458],[121.45297671846302,31.229338842975206],[121.46111835381758,31.229338842975206],[121.46111835381758,31.229114265181458],[121.45297671846302,31.229114265181458]],[[121.45274009001452,31.229338842975206],[121.45274009001452,31.229563420768955],[121.46140701276352,31.229563420768955],[121.46140701276352,31.229338842975206],[121.45274009001452,31.229338842975206]],[[121.4525034623072,31.229563420768955],[121.4525034623072,31.2297879985627],[121.46143304030066,31.2297879985627],[121.46143304030066,31.229563420768955],[121.4525034623072,31.229563420768955]],[[121.45226683534106,31.2297879985627],[121.45226683534106,31.230012576356447],[121.46172170509863,31.230012576356447],[121.46172170509863,31.2297879985627],[121.45226683534106,31.2297879985627]],[[121.45229284501136,31.230012576356447],[121.45229284501136,31.230237154150196],[121.4617477372395,31.230237154150196],[121.4617477372395,31.230012576356447],[121.45229284501136,31.230012576356447]],[[121.45205622015179,31.230237154150196],[121.45205622015179,31.230461731943944],[121.46203640788964,31.230461731943944],[121.46203640788964,31.230237154150196],[121.45205622015179,31.230237154150196]],[[121.45181959603342,31.230461731943944],[121.45181959603342,31.230686309737692],[121.46206244463438,31.230686309737692],[121.46206244463438,31.230461731943944],[121.45181959603342,31.230461731943944]],[[121.45184561042402,31.230686309737692],[121.45184561042402,31.23091088753144],[121.46208848336897,31.23091088753144],[121.46208848336897,31.230686309737692],[121.45184561042402,31.230686309737692]],[[121.45187162680418,31.23091088753144],[121.45187162680418,31.23113546532519],[121.46211452409338,31.23113546532519],[121.46211452409338,31.23091088753144],[121.45187162680418,31.23091088753144]],[[121.45163500615769,31.23113546532519],[121.45163500615769,31.231360043118936],[121.4624032058239,31.231360043118936],[121.4624032058239,31.23113546532519],[121.45163500615769,31.23113546532519]],[[121.45166102589283,31.231360043118936],[121.45166102589283,31.23158462091268],[121.46216661151182,31.23158462091268],[121.46216661151182,31.231360043118936],[121.45166102589283,31.231360043118936]],[[121.45168704761757,31.23158462091268],[121.45168704761757,31.23180919870643],[121.46219265820586,31.23180919870643],[121.46219265820586,31.23158462091268],[121.45168704761757,31.23158462091268]],[[121.45171307133192,31.23180919870643],[121.45171307133192,31.232033776500177],[121.46248134777875,31.232033776500177],[121.46248134777875,31.23180919870643],[121.45171307133192,31.23180919870643]],[[121.45173909703594,31.232033776500177],[121.45173909703594,31.232258354293926],[121.46224475756368,31.232258354293926],[121.46224475756368,31.232033776500177],[121.45173909703594,31.232033776500177]],[[121.45176512472955,31.232258354293926],[121.45176512472955,31.232482932087674],[121.46227081022742,31.232482932087674],[121.46227081022742,31.232258354293926],[121.45176512472955,31.232258354293926]],[[121.45179115441282,31.232482932087674],[121.45179115441282,31.232707509881422],[121.46229686488113,31.232707509881422],[121.46229686488113,31.232482932087674],[121.45179115441282,31.232482932087674]],[[121.45181718608573,31.232707509881422],[121.45181718608573,31.23293208767517],[121.46232292152474,31.23293208767517],[121.46232292152474,31.232707509881422],[121.45181718608573,31.232707509881422]],[[121.45184321974834,31.23293208767517],[121.45184321974834,31.23315666546892],[121.46208633614809,31.23315666546892],[121.46208633614809,31.23293208767517],[121.45184321974834,31.23293208767517]],[[121.45186925540065,31.23315666546892],[121.45186925540065,31.233381243262667],[121.46211239614738,31.233381243262667],[121.46211239614738,31.23315666546892],[121.45186925540065,31.23315666546892]],[[121.45189529304263,31.233381243262667],[121.45189529304263,31.23360582105641],[121.46213845813661,31.23360582105641],[121.46213845813661,31.233381243262667],[121.45189529304263,31.233381243262667]],[[121.4521839785574,31.23360582105641],[121.4521839785574,31.23383039885016],[121.46190187623267,31.23383039885016],[121.46190187623267,31.23360582105641],[121.4521839785574,31.23360582105641]],[[121.45221002080308,31.23383039885016],[121.45221002080308,31.234054976643908],[121.46166529507013,31.234054976643908],[121.46166529507013,31.23383039885016],[121.45221002080308,31.23383039885016]],[[121.45249871217024,31.234054976643908],[121.45249871217024,31.234279554437656],[121.46142871464899,31.234279554437656],[121.46142871464899,31.234054976643908],[121.45249871217024,31.234054976643908]],[[121.45252475901972,31.234279554437656],[121.45252475901972,31.234504132231404],[121.46145478272524,31.234504132231404],[121.46145478272524,31.234279554437656],[121.45252475901972,31.234279554437656]],[[121.45281345623933,31.234504132231404],[121.45281345623933,31.234728710025152],[121.46121820441111,31.234728710025152],[121.46121820441111,31.234504132231404],[121.45281345623933,31.234504132231404]],[[121.4528395076927,31.234728710025152],[121.4528395076927,31.2349532878189],[121.46124427584306,31.2349532878189],[121.46124427584306,31.234728710025152],[121.4528395076927,31.234728710025152]],[[121.45286556113582,31.2349532878189],[121.45286556113582,31.23517786561265],[121.46100769963594,31.23517786561265],[121.46100769963594,31.2349532878189],[121.45286556113582,31.2349532878189]],[[121.45341691707553,31.23517786561265],[121.45341691707553,31.235402443406393],[121.4605084739168,31.235402443406393],[121.4605084739168,31.23517786561265],[121.45341691707553,31.23517786561265]],[[121.45344297574697,31.235402443406393],[121.45344297574697,31.23562702120014],[121.46053454944574,31.23562702120014],[121.46053454944574,31.235402443406393],[121.45344297574697,31.235402443406393]],[[121.45425699091453,31.23562702120014],[121.45425699091453,31.23585159899389],[121.45977267245844,31.23585159899389],[121.45977267245844,31.23562702120014],[121.45425699091453,31.23562702120014]],[[121.45428305543876,31.23585159899389],[121.45428305543876,31.236076176787638],[121.45979875009436,31.236076176787638],[121.45979875009436,31.23585159899389],[121.45428305543876,31.23585159899389]],[[121.45509708020536,31.236076176787638],[121.45509708020536,31.236300754581386],[121.4590368714678,31.236300754581386],[121.4590368714678,31.236076176787638],[121.45509708020536,31.236076176787638]],[[121.45564845733294,31.236300754581386],[121.45564845733294,31.236525332375134],[121.45827499108503,31.236525332375134],[121.45827499108503,31.236300754581386],[121.45564845733294,31.236300754581386]]]}}